[{"OBJECT_NAME":"STARLINK-36911","OBJECT_ID":"2026-039Y","EPOCH":"2026-03-05T22:00:01.999584","MEAN_MOTION":15.98291825,"ECCENTRICITY":0.00019104,"INCLINATION":42.9979,"RA_OF_ASC_NODE":78.2141,"ARG_OF_PERICENTER":263.6343,"MEAN_ANOMALY":165.2268,"EPHEMERIS_TYPE":0,"CLASSIFICATION_TYPE":"U","NORAD_CAT_ID":68008,"ELEMENT_SET_NO":999,"REV_AT_EPOCH":227,"BSTAR":-0.0029397239,"MEAN_MOTION_DOT":-0.01417287,"MEAN_MOTION_DDOT":0.00060923907},{"OBJECT_NAME":"STARLINK-36956","OBJECT_ID":"2026-039Z","EPOCH":"2026-03-05T22:00:01.999584","MEAN_MOTION":15.98419799,"ECCENTRICITY":0.00016588,"INCLINATION":42.9978,"RA_OF_ASC_NODE":78.2096,"ARG_OF_PERICENTER":269.0627,"MEAN_ANOMALY":161.4995,"EPHEMERIS_TYPE":0,"CLASSIFICATION_TYPE":"U","NORAD_CAT_ID":68009,"ELEMENT_SET_NO":999,"REV_AT_EPOCH":227,"BSTAR":-0.0029045183,"MEAN_MOTION_DOT":-0.01410434,"MEAN_MOTION_DDOT":0.0006046569},{"OBJECT_NAME":"STARLINK-36953","OBJECT_ID":"2026-039AA","EPOCH":"2026-03-05T22:00:01.999584","MEAN_MOTION":15.98694736,"ECCENTRICITY":0.00018125,"INCLINATION":42.9977,"RA_OF_ASC_NODE":78.2,"ARG_OF_PERICENTER":265.2275,"MEAN_ANOMALY":169.0796,"EPHEMERIS_TYPE":0,"CLASSIFICATION_TYPE":"U","NORAD_CAT_ID":68010,"ELEMENT_SET_NO":999,"REV_AT_EPOCH":227,"BSTAR":-0.0028655403,"MEAN_MOTION_DOT":-0.01413237,"MEAN_MOTION_DDOT":0.00060862656},{"OBJECT_NAME":"STARLINK-36991","OBJECT_ID":"2026-039AB","EPOCH":"2026-03-05T22:00:01.999584","MEAN_MOTION":15.98825002,"ECCENTRICITY":0.00018226,"INCLINATION":42.9977,"RA_OF_ASC_NODE":78.1954,"ARG_OF_PERICENTER":266.9174,"MEAN_ANOMALY":169.2244,"EPHEMERIS_TYPE":0,"CLASSIFICATION_TYPE":"U","NORAD_CAT_ID":68011,"ELEMENT_SET_NO":999,"REV_AT_EPOCH":227,"BSTAR":-0.002830792,"MEAN_MOTION_DOT":-0.01406496,"MEAN_MOTION_DDOT":0.00060414219},{"OBJECT_NAME":"STARLINK-36936","OBJECT_ID":"2026-039AC","EPOCH":"2026-03-05T22:00:01.999584","MEAN_MOTION":15.99097871,"ECCENTRICITY":0.0001882,"INCLINATION":42.9978,"RA_OF_ASC_NODE":78.1859,"ARG_OF_PERICENTER":267.84,"MEAN_ANOMALY":171.8856,"EPHEMERIS_TYPE":0,"CLASSIFICATION_TYPE":"U","NORAD_CAT_ID":68012,"ELEMENT_SET_NO":999,"REV_AT_EPOCH":227,"BSTAR":-0.0028097055,"MEAN_MOTION_DOT":-0.01417637,"MEAN_MOTION_DDOT":0.00061473024},{"OBJECT_NAME":"STARLINK-36967","OBJECT_ID":"2026-039AD","EPOCH":"2026-03-05T22:00:01.999584","MEAN_MOTION":15.9855415,"ECCENTRICITY":0.00017881,"INCLINATION":42.9976,"RA_OF_ASC_NODE":78.2046,"ARG_OF_PERICENTER":266.2381,"MEAN_ANOMALY":166.1323,"EPHEMERIS_TYPE":0,"CLASSIFICATION_TYPE":"U","NORAD_CAT_ID":68013,"ELEMENT_SET_NO":999,"REV_AT_EPOCH":227,"BSTAR":-0.0028828749,"MEAN_MOTION_DOT":-0.01410585,"MEAN_MOTION_DDOT":0.00060563304},{"OBJECT_NAME":"STARLINK-36985","OBJECT_ID":"2026-039AE","EPOCH":"2026-03-05T22:00:01.999584","MEAN_MOTION":15.98959158,"ECCENTRICITY":0.00017911,"INCLINATION":42.9978,"RA_OF_ASC_NODE":78.1909,"ARG_OF_PERICENTER":271.1833,"MEAN_ANOMALY":166.687,"EPHEMERIS_TYPE":0,"CLASSIFICATION_TYPE":"U","NORAD_CAT_ID":68014,"ELEMENT_SET_NO":999,"REV_AT_EPOCH":227,"BSTAR":-0.0028288309,"MEAN_MOTION_DOT":-0.01416101,"MEAN_MOTION_DDOT":0.00061260475},{"OBJECT_NAME":"OBJECT A","OBJECT_ID":"2026-040A","EPOCH":"2026-03-05T18:00:00.999648","MEAN_MOTION":16.11478767,"ECCENTRICITY":0.00014043,"INCLINATION":97.2857,"RA_OF_ASC_NODE":12.5223,"ARG_OF_PERICENTER":51.5499,"MEAN_ANOMALY":307.8857,"EPHEMERIS_TYPE":0,"CLASSIFICATION_TYPE":"U","NORAD_CAT_ID":68015,"ELEMENT_SET_NO":999,"REV_AT_EPOCH":173,"BSTAR":-0.00061993748,"MEAN_MOTION_DOT":-0.00633725,"MEAN_MOTION_DDOT":0.00016204112},{"OBJECT_NAME":"OBJECT B","OBJECT_ID":"2026-040B","EPOCH":"2026-03-05T18:00:00.999648","MEAN_MOTION":16.11648501,"ECCENTRICITY":0.00015653,"INCLINATION":97.2857,"RA_OF_ASC_NODE":12.5234,"ARG_OF_PERICENTER":62.3269,"MEAN_ANOMALY":298.778,"EPHEMERIS_TYPE":0,"CLASSIFICATION_TYPE":"U","NORAD_CAT_ID":68016,"ELEMENT_SET_NO":999,"REV_AT_EPOCH":178,"BSTAR":-0.00049516314,"MEAN_MOTION_DOT":-0.00512508,"MEAN_MOTION_DDOT":0.00010940435},{"OBJECT_NAME":"OBJECT C","OBJECT_ID":"2026-040C","EPOCH":"2026-03-05T18:00:00.999648","MEAN_MOTION":16.11788683,"ECCENTRICITY":0.00012262,"INCLINATION":97.2857,"RA_OF_ASC_NODE":12.5238,"ARG_OF_PERICENTER":59.332,"MEAN_ANOMALY":302.5531,"EPHEMERIS_TYPE":0,"CLASSIFICATION_TYPE":"U","NORAD_CAT_ID":68017,"ELEMENT_SET_NO":999,"REV_AT_EPOCH":178,"BSTAR":-0.00056101163,"MEAN_MOTION_DOT":-0.00585658,"MEAN_MOTION_DDOT":0.00014052552},{"OBJECT_NAME":"OBJECT D","OBJECT_ID":"2026-040D","EPOCH":"2026-03-05T18:00:00.999648","MEAN_MOTION":16.11574581,"ECCENTRICITY":0.00012458,"INCLINATION":97.2857,"RA_OF_ASC_NODE":12.5231,"ARG_OF_PERICENTER":52.3258,"MEAN_ANOMALY":307.9363,"EPHEMERIS_TYPE":0,"CLASSIFICATION_TYPE":"U","NORAD_CAT_ID":68018,"ELEMENT_SET_NO":999,"REV_AT_EPOCH":178,"BSTAR":-0.00057421949,"MEAN_MOTION_DOT":-0.00590948,"MEAN_MOTION_DDOT":0.00014247552},{"OBJECT_NAME":"OBJECT E","OBJECT_ID":"2026-040E","EPOCH":"2026-03-05T18:00:00.999648","MEAN_MOTION":16.11996701,"ECCENTRICITY":0.00015776,"INCLINATION":97.2857,"RA_OF_ASC_NODE":12.5244,"ARG_OF_PERICENTER":56.5543,"MEAN_ANOMALY":306.8074,"EPHEMERIS_TYPE":0,"CLASSIFICATION_TYPE":"U","NORAD_CAT_ID":68019,"ELEMENT_SET_NO":999,"REV_AT_EPOCH":178,"BSTAR":-0.00060772015,"MEAN_MOTION_DOT":-0.00642985,"MEAN_MOTION_DDOT":0.00016765979},{"OBJECT_NAME":"OBJECT F","OBJECT_ID":"2026-040F","EPOCH":"2026-03-05T18:00:00.999648","MEAN_MOTION":16.11895027,"ECCENTRICITY":0.00014903,"INCLINATION":97.2855,"RA_OF_ASC_NODE":12.5239,"ARG_OF_PERICENTER":54.1538,"MEAN_ANOMALY":308.4073,"EPHEMERIS_TYPE":0,"CLASSIFICATION_TYPE":"U","NORAD_CAT_ID":68020,"ELEMENT_SET_NO":999,"REV_AT_EPOCH":178,"BSTAR":-0.00062454898,"MEAN_MOTION_DOT":-0.00656226,"MEAN_MOTION_DDOT":0.00017388855},{"OBJECT_NAME":"OBJECT G","OBJECT_ID":"2026-040G","EPOCH":"2026-03-05T18:00:00.999648","MEAN_MOTION":16.12158774,"ECCENTRICITY":0.00015172,"INCLINATION":97.2853,"RA_OF_ASC_NODE":12.5245,"ARG_OF_PERICENTER":55.7296,"MEAN_ANOMALY":308.4306,"EPHEMERIS_TYPE":0,"CLASSIFICATION_TYPE":"U","NORAD_CAT_ID":68021,"ELEMENT_SET_NO":999,"REV_AT_EPOCH":178,"BSTAR":-0.00074014514,"MEAN_MOTION_DOT":-0.00790492,"MEAN_MOTION_DDOT":0.00024650266},{"OBJECT_NAME":"OBJECT H","OBJECT_ID":"2026-040H","EPOCH":"2026-03-05T18:00:00.999648","MEAN_MOTION":16.12214576,"ECCENTRICITY":0.00015993,"INCLINATION":97.2855,"RA_OF_ASC_NODE":12.5249,"ARG_OF_PERICENTER":57.0305,"MEAN_ANOMALY":307.9489,"EPHEMERIS_TYPE":0,"CLASSIFICATION_TYPE":"U","NORAD_CAT_ID":68022,"ELEMENT_SET_NO":999,"REV_AT_EPOCH":178,"BSTAR":-0.00060392867,"MEAN_MOTION_DOT":-0.00648325,"MEAN_MOTION_DDOT":0.00017077034},{"OBJECT_NAME":"OBJECT J","OBJECT_ID":"2026-040J","EPOCH":"2026-03-05T18:00:00.999648","MEAN_MOTION":16.12288742,"ECCENTRICITY":0.00012639,"INCLINATION":97.2854,"RA_OF_ASC_NODE":12.5252,"ARG_OF_PERICENTER":63.5408,"MEAN_ANOMALY":302.232,"EPHEMERIS_TYPE":0,"CLASSIFICATION_TYPE":"U","NORAD_CAT_ID":68023,"ELEMENT_SET_NO":999,"REV_AT_EPOCH":178,"BSTAR":-0.00052644591,"MEAN_MOTION_DOT":-0.00568349,"MEAN_MOTION_DDOT":0.00013382244}]
